full_name,a,e,i,om,w,q,ad,per_y,data_arc,condition_code,n_obs_used,n_del_obs_used,n_dop_obs_used,H
" 20543 (1999 RZ98)",3.222370835572228,.032870309054753,21.82152032419023,20.83536546298863,294.5642559463077,3.116450510317947,3.32829116082651,5.7845753110926,12854,0,1017,,,12.6
" 65252 (2002 FP24)",3.222439322405938,.144938493197104,17.95160872159435,70.10359563399081,258.6341356175051,2.755383822597325,3.689494822214552,5.78475972625117,12767,0,678,,,13.6
"  4318 Bata (1980 DE1)",3.222483603847986,.1041569894283673,9.542545284814226,33.14532677358062,96.9736786377142,2.886839413188905,3.558127794507068,5.78487896436101,22103,0,1468,,,11.7
" 69885 (1998 SD100)",3.2225293930989,.03445455792521528,22.35746015791555,.4760527952221958,166.2027613681642,3.111498567458665,3.333560218739136,5.78500226345943,7064,0,821,,,13.5
"  5446 Heyler (1991 PB13)",3.222531757770848,.1294642647768832,2.367405086596521,100.6551682270445,331.0982133040505,2.805329053030889,3.639734462510808,5.78500863095841,13617,0,1975,,,12.3
" 53174 (1999 CH28)",3.22255253203285,.06024131335524997,23.121529084144,120.9481572319506,128.0535500573214,3.028421735146905,3.416683328918795,5.78506457120402,6710,0,923,,,13.4
" 31818 (1999 RM135)",3.222733142744013,.06032447304228981,22.6404967417453,339.9536608931048,170.7255918060446,3.028323464152058,3.417142821335969,5.78555092135143,23518,0,1219,,,12.1
"  6546 Kaye (1987 DY4)",3.222790058634088,.1048931606441375,14.41326768510114,274.8032834871983,272.4121104377916,2.884741423291453,3.560838693976723,5.78570418779619,14179,0,1204,,,11.8
" 86358 (1999 XB143)",3.222818025507387,.3225892683349739,12.96369930086823,65.51906301193578,20.66614420434036,2.183171516682194,4.26246453433258,5.7857794991277,19091,0,1022,,,13.3
" 86140 (1999 RA183)",3.222866751403309,.03782447667838124,21.34847789982792,356.7904754443776,351.1853030727435,3.100963503127324,3.344769999679294,5.78591071272077,6772,0,1004,,,13.0
" 16037 Sheehan (1999 GX8)",3.222914324210409,.05055633131130632,15.3122731845727,187.2039641574043,101.8779703575348,3.059975599847673,3.385853048573146,5.78603882212672,12913,0,1331,,,12.9
" 54650 (2000 SE315)",3.223025862685217,.01954993410821546,21.10867020973863,337.0470754565587,308.1564280600254,3.160015919440646,3.286035805929787,5.78633918918467,9828,0,880,,,13.1
" 12183 (1975 SU1)",3.223086014058118,.1281642060508164,1.496318209793092,172.8419735244886,16.00316178488809,2.810001754032869,3.636170274083367,5.7865011757239,15456,0,1504,,,13.3
" 60473 (2000 DY27)",3.223094418717527,.06042008456532451,5.523086052137795,149.1674850351534,159.6828210298759,3.028354781376588,3.417834056058465,5.78652380943723,9697,0,821,,,14.1
" 81938 (2000 OT32)",3.223498147168848,.06592894210581751,20.49213362018383,306.8345784351067,100.7863040669783,3.010976324445942,3.436019969891753,5.78761108325674,5807,0,386,,,13.8
" 14771 (4105 T-1)",3.223703231173013,.1519990771065535,1.299315320442537,147.6809471229596,132.7011031611607,2.733703315169301,3.713703147176726,5.78816341737327,16840,0,1409,,,13.5
" 29597 (1998 HT37)",3.223748820681083,.1135965387224175,9.319950528511983,1.146824330131488,91.22681693678673,2.857542112941236,3.589955528420929,5.78828620184047,11914,0,864,,,13.4
" 92179 (1999 XC200)",3.223800332311641,.04725982194396067,20.31878908791747,289.4763429344048,69.35814495881803,3.071444102623711,3.37615656199957,5.7884249371769,7514,0,539,,,14.1
" 42194 (2001 DP10)",3.223984512545709,.05878801634793584,12.94393671385211,155.0607963306125,29.2955134372311,3.034452858316679,3.413516166774738,5.78892099551345,7095,0,988,,,13.7
" 59908 (1999 RS154)",3.22405209718578,.05952248410523662,2.562145657002074,284.1518960198026,122.5985486023444,3.032148507476585,3.415955686894976,5.78910302687437,6776,0,1154,,,13.6
"  1229 Tilia (1931 TP1)",3.224232156164575,.1652418789738487,1.039237552074924,197.370317511628,166.5601692208132,2.691453976432037,3.757010335897113,5.78958800408697,31318,0,2293,,,11.3
"  4393 Dawe (1978 VP8)",3.224246870434231,.1201985659882357,2.210650476052469,125.1221157221978,86.70811400370165,2.83669702021598,3.611796720652482,5.78962763661907,24904,0,1591,,,12.7
" 94303 (2001 EH17)",3.224434277497668,.1403055508045784,25.22605494125637,125.3356623005063,.4646191746128407,2.772028250160195,3.676840304835141,5.79013242095647,6626,0,747,,,13.8
" 86269 (1999 TC272)",3.224508662294313,.09811540896262219,22.4671207798062,9.26809884069263,243.6503195185618,2.908134676189789,3.540882648398837,5.79033278182735,8831,0,508,,,13.8
"  2846 Ylppo (1942 CJ)",3.224586192836857,.07261998736838376,11.42178456185792,144.6449957104674,74.19461191334048,2.99041678424478,3.458755601428934,5.79054161845377,27802,0,1761,,,11.4
"  4098 Thraen (1987 WQ1)",3.224599725649196,.1235135769400061,2.931570264885762,99.45010774494614,7.307568127409586,2.826317879334501,3.62288157196389,5.79057807075676,21664,0,1353,,,12.9
" 34984 (3163 T-3)",3.224639858925847,.06989883391296509,19.0941774362474,27.68334241036323,173.6279102594311,2.999241292997662,3.450038424854032,5.79068617514857,14631,0,908,,,13.6
" 14556 (1997 VN1)",3.224760075467612,.1374113346514944,1.332000959032973,168.7560810772167,228.2681431469312,2.781641489566753,3.66787866136847,5.79100999863814,11854,0,1427,,,13.4
" 28041 (1998 FQ87)",3.224780426517808,.07279258697232251,13.03431592805152,24.98129638819191,239.9994630559793,2.990040316853867,3.459520536181748,5.79106481821464,20818,0,1387,,,12.9
" 13568 (1992 WL3)",3.22501433522598,.03787499110484929,10.88973252783351,204.1251509605621,213.4670439245743,3.102866945966285,3.347161724485675,5.79169490997656,15455,0,1568,,,12.1
"  3902 Yoritomo (1986 AL)",3.225077346850092,.06515568569272555,15.54996248284309,293.7034935376245,353.684257103306,3.014945220903998,3.435209472796185,5.79186465149425,30640,0,1306,,,11.5
" 15134 (2000 ED92)",3.225155259438785,.1048498569315877,3.953628824265363,228.0860133184191,230.4615175275958,2.886998191904471,3.563312326973099,5.79207453571341,17111,0,1241,,,13.2
"  2667 Oikawa (1967 UO)",3.225206510523889,.1882168383030836,2.238259820474964,60.07539966081035,306.8432387745864,2.618168338238562,3.832244682809216,5.79221259943146,22507,0,1708,,,11.9
" 82016 (2000 RJ101)",3.225317684733374,.1902109127580447,24.39544607296044,329.9511959941643,275.2096797877562,2.611827063985576,3.838808305481173,5.79251209197746,7215,0,687,,,13.5
"291511 (2006 DS195)",3.225334485413457,.1336372105591994,18.37119833163182,357.5289057733903,57.3033634766209,2.794309781662412,3.656359189164502,5.79255735183033,6669,0,310,,,15.0
" 13291 (1998 QH77)",3.225373532140396,.09883459021471455,13.69209138068103,295.8251592979141,90.16584944427557,2.906595060801914,3.544152003478878,5.7926625414273,10612,0,1302,,,12.9
" 36156 (1999 RQ206)",3.225536212453973,.0865842561958316,13.98581211206876,261.1870458218891,78.47007880495796,2.946255558665925,3.50481686624202,5.79310079952286,22629,0,1405,,,12.3
" 14206 Sehnal (1999 CL10)",3.225705030485164,.1767965519566803,8.41048735953429,117.4138843805039,232.6572044894985,2.655411503466068,3.795998557504259,5.79355560421422,11573,0,1355,,,12.9
" 76583 (2000 GF136)",3.225868747601335,.02232152319953753,21.27802819789887,193.270477180845,154.0320439780433,3.153862443513089,3.297875051689581,5.79399667813848,6263,0,1034,,,12.7
" 23001 (1999 VS89)",3.225947162615882,.08758251697029017,5.798714016880929,51.73450948632689,76.76695077404894,2.943410590500817,3.508483734730947,5.7942079417377,8871,0,900,,,13.6
" 43236 (2000 AB199)",3.225952878493976,.06036413658161777,11.16936117482559,264.3225961362891,310.3780424040541,3.031221018330703,3.42068473865725,5.79422334140139,6999,0,697,,,13.7
"  8322 Kononovich (1978 RL1)",3.226050687204514,.1480136872225342,1.816734324478123,148.8563616317006,206.7213474346462,2.748551029824584,3.703550344584444,5.79448685880102,14629,0,1210,,,13.1
" 18052 (1999 RV199)",3.226104213641111,.04988493835514182,14.04495237165766,233.035822763883,179.866980823248,3.065170203816361,3.387038223465861,5.79463107205899,13310,0,1472,,,12.0
" 28060 (1998 OL8)",3.22614202497402,.1099825201693652,9.651508772952978,145.427470104644,233.411909398135,2.871322794643078,3.580961255304961,5.79473294572086,8391,0,1213,,,13.1
" 24392 (2000 AD179)",3.226184744345191,.1282097984152218,10.58884854793291,163.6268182950569,322.073457110349,2.81255624862243,3.639813240067951,5.79484804364515,9752,0,1009,,,13.5
" 57290 (2001 QM169)",3.22623141138703,.08169575160094519,17.39443483368465,273.6264344996605,92.52949855841784,2.962662011395188,3.489800811378871,5.79497377856835,7127,0,684,,,13.3
"  3010 Ushakov (1978 SB5)",3.226245007903509,.1653473254689071,2.035651177863911,127.0375256682847,172.9177627988677,2.692794024539251,3.759695991267767,5.79501041180824,14602,0,1567,,,12.7
" 24866 (1996 ER1)",3.226306904092106,.05340813104788485,21.22866398774279,357.4666740791943,330.852615388008,3.053995882157659,3.398617926026553,5.7951771803473,11111,0,1188,,,12.2
" 29897 (1999 GM61)",3.226307959467651,.03794021937648229,4.158146676908687,42.93751091080318,229.3943397601032,3.103901127709357,3.348714791225945,5.79518002388744,8815,0,885,,,13.8
"  6340 Kathmandu (1993 TF2)",3.226398868612497,.1416442373912253,2.29463092125554,77.89099329714912,70.5737793181875,2.769398061347968,3.683399675877026,5.79542496574265,14567,0,1595,,,12.3
" 24282 (1999 XB179)",3.226524010788489,.07283304457792285,16.35569734496608,81.65781737177373,206.8385424345309,2.991526443678993,3.461521577897986,5.79576214931159,8805,0,1023,,,12.6
" 58879 (1998 HO126)",3.226562041633234,.1080847012675734,23.51164583874073,99.02199829406433,98.42597690783059,2.877820047242014,3.575304036024454,5.79586462106412,7096,0,1114,,,12.5
"108455 (2001 KD50)",3.226689076079227,.2306661092138033,24.87355029456921,257.6245412685819,314.9597749278357,2.48240126125735,3.970976890901103,5.79620691187801,6620,0,257,,,13.8
